0 PSLV DEB
1 27530U 01049MV  13281.50605561  .00003830  00000-0  23362-3 0  5533
2 27530 097.5791 007.2544 0052421 309.2429 106.7179 15.09798159628249
0 PSLV DEB
1 27530U 01049MV  13282.43525583  .00006506  00000-0  39366-3 0  5546
2 27530 097.5790 008.1734 0052423 306.0705 117.1796 15.09816081628384
0 PSLV DEB
1 27530U 01049MV  13283.49385652  .00006416  00000-0  38814-3 0  5552
2 27530 097.5788 009.2202 0052487 302.2558 111.2315 15.09823644628540
0 PSLV DEB
1 27530U 01049MV  13285.03129863  .00006105  00000-0  36941-3 0  5569
2 27530 097.5790 010.7404 0052508 296.8797 187.9371 15.09835466628773
0 PSLV DEB
1 27530U 01049MV  13286.20661903  .00006539  00000-0  39526-3 0  5579
2 27530 097.5796 011.9027 0052456 292.7820 096.3796 15.09849110628952
0 PSLV DEB
1 27530U 01049MV  13287.20704067  .00006509  00000-0  39340-3 0  5581
2 27530 097.5803 012.8922 0052370 289.3111 134.1915 15.09859485629103
0 PSLV DEB
1 27530U 01049MV  13288.46509378  .00009203  00000-0  55403-3 0  5591
2 27530 097.5809 014.1366 0052224 284.9182 132.4619 15.09881692629290
0 PSLV DEB
1 27530U 01049MV  13289.52554551  .00008124  00000-0  48952-3 0  5606
2 27530 097.5810 015.1857 0052117 281.1820 136.7591 15.09896579629451
0 PSLV DEB
1 27530U 01049MV  13291.51343987  .00007483  00000-0  45094-3 0  5619
2 27530 097.5805 017.1525 0052084 274.1426 142.5405 15.09922667629756
0 PSLV DEB
1 27530U 01049MV  13292.72408604  .00006588  00000-0  39735-3 0  5622
2 27530 097.5799 018.3503 0052123 269.8879 243.4199 15.09939539629931
0 PSLV DEB
1 27530U 01049MV  13294.04425003  .00007834  00000-0  47140-3 0  5636
2 27530 097.5790 019.6562 0052227 265.2454 219.7075 15.09952342630135
0 PSLV DEB
1 27530U 01049MV  13295.48966556  .00009693  00000-0  58174-3 0  5643
2 27530 097.5785 021.0859 0052376 260.2191 156.8710 15.09969245630354
